              M50 Cartesian                         M50 Keplerian  
    -----------------------------------       --------------------------------
     X    =        4267648.80                 A    =         6788033.31  meter
     Y    =        5238277.87  meter          E    =           .0014675
     Z    =         577882.04                 I    =           51.35721
     XDOT =      -3400.161543                 Wp   =          126.03058
     YDOT =       3437.805431  meter/sec      RA   =          234.75112  deg
     ZDOT =      -5954.637088                 TA   =           47.70571
                                              MA   =           47.58141
                                              Ha   =            220.980  n.mi
                                              Hp   =            213.416
 
              M50 Cartesian                         J2K Cartesian  
    -----------------------------------       --------------------------------
     X    =       14001472.44                 X    =         4205948.77
     Y    =       17185951.01  feet           Y    =         5285656.55  meter
     Z    =        1895938.44                 Z    =          598463.63
     XDOT =     -11155.385639                 XDOT =       -3409.426035
     YDOT =      11278.889210  feet/sec       YDOT =        3399.730971  meter/sec
     ZDOT =     -19536.210918                 ZDOT =       -5971.176683
 
              TDR Cartesian                         TDR Cartesian  
    -----------------------------------       --------------------------------
     X    =       20750687.19                 X    =         6324809.46
     Y    =       -7775838.35  feet           Y    =        -2370075.53  meter
     Z    =        1984450.59                 Z    =          604860.54
     XDOT =       6602.570663                 XDOT =        2012.463538
     YDOT =      12537.333941  feet/sec       YDOT =        3821.379385  meter/sec
     ZDOT =     -19608.670036                 ZDOT =       -5976.722627
  
  
    The mean element set is posted at the UTC for which position is
    just north of the next ascending node relative to the above
    vector time
 
 
    TWO LINE MEAN ELEMENT SET
  
    ISS
    1 25544U 98067A   16133.59307640  .00016717  00000-0  10270-3 0  9140
    2 25544  51.6422 235.6057 0001705 104.2392 255.8950 15.54521796 39443
  
  
    Satellite: ISS
    Catalog Number: 25544
    Epoch time:      16133.59307640   =   yrday.fracday
    Element set:     914
    Inclination:       51.6422  deg
    RA of node:       235.6057  deg
    Eccentricity:     .0001705     
    Arg of perigee:   104.2392  deg
    Mean anomaly:     255.8950  deg
    Mean motion:   15.54521796  rev/day
    Decay rate:    1.67170E-04  rev/day^2
    Epoch rev:            3944
    Checksum:              307
 
 
    Coasting Arc #16 (Orbit 3959)
    ---------------------------------------
 
    Vector Time (GMT): 2016/134/13:26:00.000
    Vector Time (MET): N/A
    Weight (LBS)     : 926503.7
 
              M50 Cartesian                         M50 Keplerian  
    -----------------------------------       --------------------------------
     X    =       -3500049.42                 A    =         6787543.82  meter
     Y    =       -5673298.11  meter          E    =           .0014965
     Z    =        1242929.01                 I    =           51.37458
     XDOT =       4720.165124                 Wp   =           63.29155
     YDOT =      -1625.674576  meter/sec      RA   =          229.76028  deg
     ZDOT =       5823.781476                 TA   =          310.27777
                                              MA   =          310.40851
                                              Ha   =            220.972  n.mi
                                              Hp   =            213.453
 
              M50 Cartesian                         J2K Cartesian  
    -----------------------------------       --------------------------------
     X    =      -11483101.76                 X    =        -3442386.69
     Y    =      -18613182.78  feet           Y    =        -5712115.61  meter
     Z    =        4077851.08                 Z    =         1226066.50
     XDOT =      15486.106051                 XDOT =        4709.703459
     YDOT =      -5333.578006  feet/sec       YDOT =       -1572.949167  meter/sec
     ZDOT =      19106.894606                 ZDOT =        5846.685518
 
              TDR Cartesian                         TDR Cartesian  
    -----------------------------------       --------------------------------
     X    =      -21223114.73                 X    =        -6468805.37
     Y    =        5336289.58  feet           Y    =         1626501.06  meter
     Z    =        4005556.59                 Z    =         1220893.65
     XDOT =        -43.152117                 XDOT =         -13.152765
     YDOT =     -14708.334805  feet/sec       YDOT =       -4483.100449  meter/sec
     ZDOT =      19206.697260                 ZDOT =        5854.201325
  
  
    The mean element set is posted at the UTC for which position is
    just north of the next ascending node relative to the above
    vector time
 
 
    TWO LINE MEAN ELEMENT SET
  
    ISS
    1 25544U 98067A   16134.62164042  .00016717  00000-0  10270-3 0  9153
    2 25544  51.6419 230.4755 0001681 104.0276 256.1064 15.54526688 39602
  
  
    Satellite: ISS
    Catalog Number: 25544
    Epoch time:      16134.62164042   =   yrday.fracday
    Element set:     915
    Inclination:       51.6419  deg
    RA of node:       230.4755  deg
    Eccentricity:     .0001681     
    Arg of perigee:   104.0276  deg
    Mean anomaly:     256.1064  deg
    Mean motion:   15.54526688  rev/day
    Decay rate:    1.67170E-04  rev/day^2
    Epoch rev:            3960
    Checksum:              299
 
 
    Coasting Arc #17 (Orbit 3970)
    ---------------------------------------
 
    Vector Time (GMT): 2016/135/07:32:00.000
    Vector Time (MET): N/A
    Weight (LBS)     : 926503.7
 
              M50 Cartesian                         M50 Keplerian  
    -----------------------------------       --------------------------------
     X    =       -3607157.02                 A    =         6776275.57  meter
     Y    =        2321022.06  meter          E    =           .0016451
     Z    =       -5260265.09                 I    =           51.35113
     XDOT =      -4856.812643                 Wp   =           97.20040
     YDOT =      -5873.247428  meter/sec      RA   =          225.96422  deg
     ZDOT =        738.973550                 TA   =          179.89816
                                              MA   =          179.89782
                                              Ha   =            220.983  n.mi
                                              Hp   =            213.192
 
              M50 Cartesian                         J2K Cartesian  
    -----------------------------------       --------------------------------
     X    =      -11834504.67                 X    =        -3607290.94
     Y    =        7614901.78  feet           Y    =         2280683.75  meter
     Z    =      -17258087.57                 Z    =        -5277788.15
     XDOT =     -15934.424681                 XDOT =       -4794.365187
     YDOT =     -19269.184476  feet/sec       YDOT =       -5927.210384  meter/sec
     ZDOT =       2424.453903                 ZDOT =         715.531844
 
              TDR Cartesian                         TDR Cartesian  
    -----------------------------------       --------------------------------
     X    =      -13322012.29                 X    =        -4060549.35
     Y    =        4233010.91  feet           Y    =         1290221.73  meter
     Z    =      -17334630.76                 Z    =        -5283595.46
     XDOT =      -9962.012256                 XDOT =       -3036.421336
     YDOT =     -21836.419789  feet/sec       YDOT =       -6655.740752  meter/sec
     ZDOT =       2323.591921                 ZDOT =         708.230818
  
  
    The mean element set is posted at the UTC for which position is
    just north of the next ascending node relative to the above
    vector time
 
 
    TWO LINE MEAN ELEMENT SET
  
    ISS
    1 25544U 98067A   16135.32877328  .00016717  00000-0  10270-3 0  9160
    2 25544  51.6398 226.9463 0001872 107.9203 252.2154 15.54557783 39717
  
  
    Satellite: ISS
    Catalog Number: 25544
    Epoch time:      16135.32877328   =   yrday.fracday
    Element set:     916
    Inclination:       51.6398  deg
    RA of node:       226.9463  deg
    Eccentricity:     .0001872     
    Arg of perigee:   107.9203  deg
    Mean anomaly:     252.2154  deg
    Mean motion:   15.54557783  rev/day
    Decay rate:    1.67170E-04  rev/day^2
    Epoch rev:            3971
    Checksum:              331
 
             </PRE>
           </TD>
        </TR>
    </TABLE>
    
    <table align="center" border="0" width="600" cellpadding="0" cellspacing="0">
      <tr>
        <td align="center" valign="top"><hr size="1" width="600" noshade="noshade" />
        <font face="Arial,helvetica" size="-2">Curator: <a href="/cgi-bin/comment.cgi?jsc-hsfwebma@mail.nasa.gov">Kim 
          Dismukes</a> | Responsible NASA Official: <a href="/cgi-bin/comment.cgi?jsc-hsfwebma@mail.nasa.gov">Amiko Kauderer</a> | Updated: 06/08/2009<br />
        <a href="http://www.nasa.gov/about/highlights/HP_Privacy.html">Privacy Policy and Important Notices</a></font></td>
      </tr>
    </table>
    </body>
    </html>
